MALLIGYONG-1            
1 58400U 23179A   24186.54795858  .00006047  00000+0  27339-3 0  9994
2 58400  97.4025  73.1027 0003547 114.3395 245.8212 15.21296360 34366
